     2.100          NAVIGATION                              RINEX VERSION / TYPE
fic2rin                                 11/19/2011 01:41:41 PGM / RUN BY / DATE
                                                            END OF HEADER
23 11 11 18 12  0  0.0  .258324667811D-03 -.329691829393D-11  .000000000000D+00
     .600000000000D+02  .152500000000D+02  .433089468486D-08  .701898780033D+00
     .851228833199D-06  .754235126078D-02  .906176865101D-05  .515371027946D+04
     .475200000000D+06  .126659870148D-06 -.189763729427D+01  .150874257088D-06
     .962331571693D+00  .204625000000D+03 -.303271357845D+01 -.806747890002D-08
    -.243224416988D-09  .100000000000D+01  .166200000000D+04  .000000000000D+00
     .240000000000D+01  .000000000000D+00 -.204890966415D-07  .600000000000D+02
     .468006000000D+06  .400000000000D+01
25 11 11 18 12  0  0.0  .279862433672D-04  .113686837722D-11  .000000000000D+00
     .940000000000D+02 -.333750000000D+02  .467376610969D-08 -.244771157457D+01
    -.172853469849D-05  .999961514026D-03  .509619712830D-05  .515356456757D+04
     .475200000000D+06  .856816768646D-07  .172676534659D+00 -.372529029846D-07
     .966481687419D+00  .284343750000D+03  .854065611375D+00 -.829498837670D-08
     .111076055335D-09  .100000000000D+01  .166200000000D+04  .000000000000D+00
     .240000000000D+01  .000000000000D+00  .512227416039D-08  .940000000000D+02
     .468006000000D+06  .400000000000D+01
26 11 11 18 12  0  0.0 -.230448320508D-03 -.135287336889D-10  .000000000000D+00
     .540000000000D+02  .893750000000D+01  .389873382648D-08  .552030153495D+00
     .491738319397D-06  .204611694207D-01  .920705497265D-05  .515365694237D+04
     .475200000000D+06 -.346451997757D-06 -.182895033096D+01  .186264514923D-08
     .985330531063D+00  .219312500000D+03  .116519299686D+01 -.810998067039D-08
    -.337156901081D-09  .100000000000D+01  .166200000000D+04  .000000000000D+00
     .240000000000D+01  .000000000000D+00 -.605359673500D-08  .540000000000D+02
     .468006000000D+06  .400000000000D+01
27 11 11 18 12  0  0.0  .326925422996D-03  .397903932026D-11  .000000000000D+00
     .900000000000D+02  .198437500000D+02  .406374069968D-08  .150784493278D+01
     .780448317528D-06  .218268964672D-01  .739097595215D-05  .515359501457D+04
     .475200000000D+06  .430271029472D-06 -.904185844547D+00 -.333413481712D-06
     .981637904930D+00  .244937500000D+03 -.117869040571D+01 -.781318259327D-08
     .193936649668D-09  .100000000000D+01  .166200000000D+04  .000000000000D+00
     .340000000000D+01  .630000000000D+02 -.419095158577D-08  .900000000000D+02
     .468006000000D+06  .400000000000D+01
28 11 11 18 12  0  0.0  .853124074638D-04  .329691829393D-11  .000000000000D+00
     .410000000000D+02 -.451875000000D+02  .437446792843D-08  .258214920223D+01
    -.246055424213D-05  .174775174819D-01  .496208667755D-05  .515370583534D+04
     .475200000000D+06  .113621354103D-06  .229520001389D+00 -.173225998878D-06
     .976895548764D+00  .290656250000D+03 -.187237495340D+01 -.788139972051D-08
     .110718897601D-10  .100000000000D+01  .166200000000D+04  .000000000000D+00
     .240000000000D+01  .000000000000D+00 -.107102096081D-07  .410000000000D+02
     .468006000000D+06  .400000000000D+01
29 11 11 18 12  0  0.0  .258473213762D-03  .329691829393D-11  .000000000000D+00
     .570000000000D+02 -.503125000000D+02  .448340103736D-08 -.158113904058D+01
    -.272318720818D-05  .210125301965D-02  .919401645660D-05  .515369173431D+04
     .475200000000D+06 -.117346644402D-06  .127251441242D+01  .372529029846D-07
     .962145690396D+00  .201312500000D+03 -.117540279284D+01 -.802283418325D-08
    -.117504894551D-09  .100000000000D+01  .166200000000D+04  .000000000000D+00
     .240000000000D+01  .000000000000D+00 -.931322574615D-08  .570000000000D+02
     .468006000000D+06  .400000000000D+01
30 11 11 18 12  0  0.0  .460394658148D-04 -.852651282912D-11  .000000000000D+00
     .310000000000D+02 -.355312500000D+02  .486055960467D-08  .195206759278D+01
    -.196322798729D-05  .116080325097D-01  .450573861599D-05  .515544514656D+04
     .475200000000D+06  .171363353729D-06  .835678113576D-01 -.229105353355D-06
     .957773661700D+00  .289875000000D+03  .158394260605D+01 -.821498504424D-08
     .914323799542D-10  .100000000000D+01  .166200000000D+04  .000000000000D+00
     .965000000000D+01  .000000000000D+00 -.419095158577D-08  .310000000000D+02
     .468006000000D+06  .400000000000D+01
31 11 11 18 12  0  0.0  .171022489667D-03  .511590769747D-11  .000000000000D+00
     .840000000000D+02  .387812500000D+02  .417195949314D-08 -.922612313020D+00
     .181235373020D-05  .784715602640D-02  .714696943760D-05  .515377624130D+04
     .475200000000D+06 -.124797224998D-06 -.848598020885D+00  .111758708954D-07
     .980426251809D+00  .256437500000D+03 -.946476016434D+00 -.806283584948D-08
     .333942481473D-09  .100000000000D+01  .166200000000D+04  .000000000000D+00
     .240000000000D+01  .000000000000D+00 -.130385160446D-07  .840000000000D+02
     .468006000000D+06  .400000000000D+01
32 11 11 18 12  0  0.0 -.363657716662D-03 -.602540239925D-11  .000000000000D+00
     .480000000000D+02  .118750000000D+02  .494699177635D-08 -.147350953302D+00
     .542029738426D-06  .121020023944D-01  .643916428089D-05  .515379369545D+04
     .475200000000D+06  .502914190292D-07 -.287015305794D+01 -.227242708206D-06
     .953649546417D+00  .254750000000D+03 -.676318217906D+00 -.847321008607D-08
    -.236438420038D-09  .100000000000D+01  .166200000000D+04  .000000000000D+00
     .340000000000D+01  .000000000000D+00 -.279396772385D-08  .480000000000D+02
     .468006000000D+06  .400000000000D+01
31 11 11 18 11 59 44.0  .171022955328D-03  .511590769747D-11  .000000000000D+00
     .000000000000D+00  .387812500000D+02  .417231665088D-08 -.924945907275D+00
     .181235373020D-05  .784715800546D-02  .714883208275D-05  .515377624512D+04
     .475184000000D+06 -.124797224998D-06 -.848597887760D+00  .111758708954D-07
     .980426251809D+00  .256437500000D+03 -.946476044229D+00 -.806283584948D-08
     .333942481473D-09  .100000000000D+01  .166200000000D+04  .000000000000D+00
     .240000000000D+01  .000000000000D+00 -.130385160446D-07  .000000000000D+00
     .468846000000D+06  .400000000000D+01
13 11 11 18 11 59 44.0  .240829773247D-03 -.204636307899D-11  .000000000000D+00
     .160000000000D+02  .149687500000D+02  .371694053978D-08  .153154394672D+01
     .748783349991D-06  .458615459502D-02  .965408980846D-05  .515375712776D+04
     .475184000000D+06  .128522515297D-06 -.182359064385D+01 -.819563865662D-07
     .987742375343D+00  .205468750000D+03  .195309757488D+01 -.771817863598D-08
    -.176435920693D-09  .100000000000D+01  .166200000000D+04  .000000000000D+00
     .240000000000D+01  .000000000000D+00 -.116415321827D-07  .160000000000D+02
     .471186000000D+06  .400000000000D+01
13 11 11 18 13 59 44.0  .240815337747D-03 -.204636307899D-11  .000000000000D+00
     .170000000000D+02  .157500000000D+02  .369408244479D-08  .258163708288D+01
     .890344381332D-06  .458652898669D-02  .940077006817D-05  .515375701904D+04
     .482384000000D+06  .391155481339D-07 -.182364529408D+01  .279396772385D-07
     .987741117234D+00  .211343750000D+03  .195312767003D+01 -.762424615188D-08
    -.251081887140D-09  .100000000000D+01  .166200000000D+04  .000000000000D+00
     .240000000000D+01  .000000000000D+00 -.116415321827D-07  .170000000000D+02
     .475206000000D+06  .400000000000D+01
31 11 11 18 13 59 44.0  .171059742570D-03  .511590769747D-11  .000000000000D+00
     .210000000000D+02  .280312500000D+02  .402338187572D-08  .125234279825D+00
     .141933560371D-05  .784921506420D-02  .735186040401D-05  .515378024864D+04
     .482384000000D+06 -.521540641785D-07 -.848655468215D+00 -.108033418655D-06
     .980428178472D+00  .245156250000D+03 -.946542160812D+00 -.808783689087D-08
     .225366530278D-09  .100000000000D+01  .166200000000D+04  .000000000000D+00
     .240000000000D+01  .000000000000D+00 -.130385160446D-07  .210000000000D+02
     .475206000000D+06  .400000000000D+01
 1 11 11 18 14  0  0.0  .100322533399D-03  .205773176276D-10  .000000000000D+00
     .750000000000D+02  .363437500000D+02  .468626663039D-08 -.394266754953D+00
     .191107392311D-05  .515752006322D-03  .914186239243D-05  .515366405678D+04
     .482400000000D+06  .372529029846D-08  .227134534985D+01  .242143869400D-07
     .960080292912D+00  .198906250000D+03  .130202639133D+01 -.809748014969D-08
     .138934358602D-09  .100000000000D+01  .166200000000D+04  .000000000000D+00
     .340000000000D+01  .000000000000D+00  .791624188423D-08  .750000000000D+02
     .475206000000D+06  .400000000000D+01
 2 11 11 18 14  0  0.0  .366215594113D-03  .181898940355D-11  .000000000000D+00
     .640000000000D+02  .240625000000D+02  .513557106001D-08  .167494743210D+01
     .141561031342D-05  .106162059819D-01  .999122858047D-05  .515360341454D+04
     .482400000000D+06  .111758708954D-07  .226175098303D+01  .232830643654D-06
     .938658455784D+00  .175906250000D+03 -.291365810137D+01 -.838463496799D-08
     .564309220030D-10  .100000000000D+01  .166200000000D+04  .000000000000D+00
     .240000000000D+01  .000000000000D+00 -.176951289177D-07  .640000000000D+02
     .475206000000D+06  .400000000000D+01
 3 11 11 18 14  0  0.0  .796698499471D-03  .511590769747D-11  .000000000000D+00
     .550000000000D+02 -.684375000000D+02  .532415034366D-08  .182416573450D+01
    -.376254320145D-05  .149251291296D-01  .866316258907D-05  .515368994141D+04
     .482400000000D+06 -.180676579475D-06  .110059546744D+01 -.337138772011D-06
     .929650416289D+00  .198156250000D+03  .115604518871D+01 -.837177728956D-08
    -.303584074067D-10  .100000000000D+01  .166200000000D+04  .000000000000D+00
     .240000000000D+01  .000000000000D+00 -.465661287308D-08  .550000000000D+02
     .475206000000D+06  .400000000000D+01
